IRIDIUM 921             
1 24873U 97034E   24353.66304816  .00145903  00000+0  11504-2 0  9992
2 24873  86.3685 195.0846 0001583  54.1370 306.0047 15.70989371504056
IRIDIUM 26              
1 24903U 97043A   24353.83826021  .00000815  00000+0  26932-3 0  9996
2 24903  86.3979 186.3024 0001907  82.3668 277.7746 14.36854759431310
IRIDIUM 22              
1 24907U 97043E   24353.82994607  .00000714  00000+0  24048-3 0  9999
2 24907  86.3985 189.6863 0001971  89.1061 271.0362 14.35699906430883
DUMMY MASS 1            
1 24925U 97048A   24354.11901611  .00000809  00000+0  87876-4 0  9994
2 24925  86.3361 218.5079 0008960  71.0423 289.1772 14.86683393478616
DUMMY MASS 2            
1 24926U 97048B   24354.11859943  .00000809  00000+0  88356-4 0  9999
2 24926  86.3360 220.0823 0009873  79.2879 280.9457 14.86437950478390
IRIDIUM 29              
1 24944U 97051A   24353.91406689  .00000755  00000+0  25231-3 0  9997
2 24944  86.3972 219.4327 0002150  89.0616 271.0827 14.36166801427619
IRIDIUM 33              
1 24946U 97051C   24353.91246544  .00000488  00000+0  16566-3 0  9995
2 24946  86.3889 218.6817 0006490 318.4168  41.6534 14.34689523426901
IRIDIUM 28              
1 24948U 97051E   24353.86532274  .00000693  00000+0  22678-3 0  9998
2 24948  86.3979 217.0725 0001755  73.9772 286.1618 14.37112625428017
